#cP2022  2 27 18  0  0.00000000     576 d+D   IGb14 EXT AIUB
## 2199  64800.00000000   300.00000000 59637 0.7500000000000
+   77   G01G02G03G05G06G07G08G09G10G11G12G13G14G15G16G17G18
+        G19G20G21G22G23G24G25G26G27G28G29G30G31G32R01R02R03
+        R04R05R07R08R09R11R12R13R14R15R17R18R19R20R21R22R24
+        E01E02E03E04E05E07E08E09E10E11E12E13E14E15E18E19E21
+        E24E25E26E27E30E31E33E34E36  0  0  0  0  0  0  0  0
++         9  7  6  7  7  7  6  6  6  8  7  7  7  7  7  7  8
++         7  7  7  7  8  6  5  6  6  7  7  6  7  6  9  7  8
++         8  8  8  7  8  6  7  7  6  7  8  7  8  9  8  8  7
++         6  6  6  6  6  6  6  7  7  7  7  6  7  6  6  7  6
++         6  6  6  6  6  5  6  6  6  0  0  0  0  0  0  0  0
%c M  cc GPS ccc cccc cccc cccc cccc ccccc ccccc ccccc ccccc
%c cc cc ccc ccc cccc cccc cccc cccc ccccc ccccc ccccc ccccc
%f  1.2500000  1.025000000  0.00000000000  0.000000000000000
%f  0.0000000  0.000000000  0.00000000000  0.000000000000000
%i    0    0    0    0      0      0      0      0         0
%i    0    0    0    0      0      0      0      0         0
/* Center for Orbit Determination in Europe (CODE)          
/* Ultra-rapid GRE orbits starting year-day 22058 18 hour   
/* Observed/predicted: 24/24 hours (data used up to 059R)   
/* PCV:IGS14      OL/AL:FES2014b NONE     YN ORB:CoN CLK:BRD
*  2022  3  1 13 40  0.00000000
PG01 -22317.546728 -14485.406355  -3067.998386    419.500106               P   P
PG02   5629.654960  17429.228960  19850.088416   -651.665230               P   P
PG03 -12686.627678 -15017.318767  17809.241398   -143.686137               P   P
PG05   5706.331201  25331.029749  -5354.458587    -73.135518               P   P
PG06 -11085.447391  10452.819392  21833.614819    217.012037               P   P
PG07 -23829.210288  -3642.820460 -11302.352983    313.528381               P   P
PG08  -7901.014262 -12916.701094 -21843.841830    -58.094437               P   P
PG09 -23081.559725   4741.413772  12218.215588   -351.968426               P   P
PG10  11771.566937 -15130.149747 -18109.924692   -334.129029               P   P
PG11   3869.620625  17956.660552  19187.105763    -74.426400               P   P
PG12  10192.961462  18583.840752  15820.139146   -178.310675               P   P
PG13  -1548.555072  16460.090810 -20904.059986    269.637910               P   P
PG14 -13050.988740  14119.011124 -18298.956125    -89.359128               P   P
PG15  10294.290767  12331.982908 -21560.729106    -80.126938               P   P
PG16    -31.774292 -26238.257364  -2113.461583   -475.489823               P   P
PG17 -22357.449951  14210.685486   2686.989092    581.519135               P   P
PG18  23416.076744   3504.639533 -12140.443199    229.658083               P   P
PG19 -18696.644357  16090.551390   9336.359343    125.300554               P   P
PG20   1289.787771  26173.442491   5083.021269    516.493207               P   P
PG21 -17512.239548 -16336.043892 -11476.313807    158.793026               P   P
PG22  15472.645106 -17781.199601  12458.105879    220.881096               P   P
PG23  14857.445419  -3100.297902 -21801.603414     -3.045340               P   P
PG24  20889.873492  15118.873148  -7496.930507    271.530809               P   P
PG25  15022.210047   5343.093794  20999.509539    292.307286               P   P
PG26   5726.503198 -23460.001339  10615.497394    187.268367               P   P
PG27   4068.150440 -17959.709467 -19186.496245    138.507430               P   P
PG28  -9452.954198  21598.153142 -11933.330115    389.972456               P   P
PG29  22505.658135  -1258.969240  14048.636541   -486.122024               P   P
PG30 -19410.733608   4141.247964 -17690.367959   -516.253536               P   P
PG31   9377.504377 -12212.505821  21539.113347   -166.966378               P   P
PG32  19480.023481 -17056.709837   5577.866672    -76.523369               P   P
PR01 -11450.782758  22548.381779  -3286.791800      7.146038               P   P
PR02    876.036752  16063.480275 -19773.270336    511.205289               P   P
PR03  12159.081857    514.990913 -22362.940519     52.371325               P   P
PR04  16325.198167 -15103.008228 -12452.115785    129.908431               P   P
PR05  11616.586226 -22274.307781   4364.858762     88.591748               P   P
PR07 -12569.512566    246.669031  22243.504051     32.179425               P   P
PR08 -16374.510488  15161.046699  12440.196368    -63.712875               P   P
PR09 -12178.458525 -22444.391518    745.178788     42.055274               P   P
PR11 -10506.641197   3503.124225 -22972.742960     44.611284               P   P
PR12   1184.805583  19083.077757 -16879.163359     17.279440               P   P
PR13  11568.100522  22656.419227  -1945.152751    -18.886276               P   P
PR14  15615.609518  12755.387975  15622.048697     74.896947               P   P
PR15  10265.586987  -4208.570175  22981.166046     97.883865               P   P
PR17  24142.626708   4130.662070   7190.166352    505.841999               P   P
PR18  23330.189749  -3332.721742  -9668.039601    108.867182               P   P
PR19  11639.274628  -8536.950872 -21027.201236   -179.918692               P   P
PR20 -10466.649526 -10060.303735 -20977.366759    -65.880807               P   P
PR21 -24574.915965  -3598.633703  -5770.093595   -281.850038               P   P
PR22 -23027.860659   3548.199873  10493.267965   -167.746585               P   P
PR24  11324.932590  10145.432129  20502.036444     82.403860               P   P
PE01  -3462.992643 -29320.388645   2010.936273   -588.411917               P   P
PE02   3562.087225  29339.102138  -1872.583910    283.410008               P   P
PE03  -3232.978835  21287.756886 -20308.795047   -532.825196               P   P
PE04 -15179.817113  -9135.193604  23720.180648   -975.139129               P   P
PE05 -20113.371031  21161.766632  -4883.817835   -204.484846               P   P
PE07  25041.724255  -8731.951125 -13146.965647   -643.955712               P   P
PE08  15445.506992   8623.533296 -23731.977673   -487.814806               P   P
PE09 -24983.199686   9058.172205  13029.977268   5343.544895               P   P
PE10 -28093.807834  -9251.906205   1185.322044   -498.029025               P   P
PE11 -27340.186356  -2221.183309  11147.843058   4337.948400               P   P
PE12 -24320.947792 -14655.689907  -8400.378045   4735.257795               P   P
PE13  27512.756982   2656.292593 -10566.687678    426.939232               P   P
PE14   9240.979075 -23894.510412 -19994.491122  -1762.854249               P   P
PE15  24253.231682  14633.213328   8583.511730    760.401405               P   P
PE18  -6355.253140  17092.736831  14707.908352  -1735.418598               P   P
PE19   5752.478414 -21945.742794  19016.255074   -588.977086               P   P
PE21   8692.212333 -21867.366226  17943.276226   -719.996623               P   P
PE24 -16862.034536    -74.414585 -24342.954652  -1417.143808               P   P
PE25  -8840.704549  21683.438892 -18113.996119   -565.287770               P   P
PE26  13689.269005 -11476.536145 -23593.135125   -861.829165               P   P
PE27  16622.347245  -1415.316497  24448.885665   -243.291365               P   P
PE30  14250.837672  20662.176079  15693.238623   -313.339807               P   P
PE31 -14702.069339 -19670.612595 -16515.584756   -492.886521               P   P
PE33  -6735.066349 -17925.699215 -22567.682561   -458.979180               P   P
PE34   6978.501089  17938.352332  22486.260756   -504.418585               P   P
PE36 -14600.666307  10799.137462  23384.289035   -339.157640               P   P
EOF
